STARLINK-37665          
1 69238U 26117A   26178.50002315 -.02458378  00000+0 -24824-1 0  9994
2 69238  53.1591 192.0012 0001173  55.2269 348.6477 15.68035773  5830
STARLINK-37558          
1 69239U 26117B   26178.50002315 -.02475880  00000+0 -20914-1 0  9998
2 69239  53.1587 191.9383 0001190  60.5019  13.9176 15.72293229  5831
STARLINK-37680          
1 69240U 26117C   26178.50002315 -.02520859  00000+0 -20669-1 0  9994
2 69240  53.1588 191.9095 0001191  56.3553  31.8233 15.73044281  5837
STARLINK-37742          
1 69241U 26117D   26178.50002315 -.02486247  00000+0 -21425-1 0  9998
2 69241  53.1588 191.9034 0001274  59.2159  32.5189 15.71840680  5841
STARLINK-37718          
1 69242U 26117E   26178.50002315 -.02449881  00000+0 -21441-1 0  9990
2 69242  53.1591 191.8876 0001088  68.6324  30.5101 15.71431568  5832
STARLINK-37735          
1 69243U 26117F   26178.50002315 -.00714344  00000+0 -77233-2 0  9999
2 69243  53.1591 191.9950 0000918  73.1230 333.2316 15.65186347  5842
STARLINK-37757          
1 69244U 26117G   26178.50002315 -.02550382  00000+0 -24756-1 0  9993
2 69244  53.1591 191.9023 0001239  63.6166  27.9298 15.69116936  5840
STARLINK-37767          
1 69245U 26117H   26178.50002315 -.02492998  00000+0 -21797-1 0  9994
2 69245  53.1591 191.8324 0001212  66.9380  58.6709 15.71511414  5840
STARLINK-35759          
1 69246U 26117J   26178.50002315 -.02572638  00000+0 -24224-1 0  9993
2 69246  53.1586 191.8079 0001247  71.4602  65.6503 15.69873612  5880
STARLINK-37238          
1 69247U 26117K   26178.50002315 -.02462985  00000+0 -37952-1 0  9999
2 69247  53.1595 192.0680 0001039  76.2806 292.1367 15.57362415  5842
STARLINK-37412          
1 69248U 26117L   26178.50002315 -.02483022  00000+0 -23915-1 0  9999
2 69248  53.1588 191.7318 0001170  67.1304 106.8148 15.69207897  5907
STARLINK-37398          
1 69249U 26117M   26178.50002315 -.02435731  00000+0 -30852-1 0  9992
2 69249  53.1595 191.9700 0000774  77.7492 338.9086 15.62394714  5904
STARLINK-37499          
1 69250U 26117N   26178.50002315 -.02521761  00000+0 -29876-1 0  9997
2 69250  53.1588 191.8499 0001327  64.4076  51.1554 15.64202439  5906
STARLINK-37489          
1 69251U 26117P   26178.50002315 -.02453629  00000+0 -31863-1 0  9994
2 69251  53.1592 191.8943 0001055  51.8994  42.2783 15.61785007  5902
STARLINK-37434          
1 69252U 26117Q   26178.50002315 -.00537720  00000+0 -10216-1 0  9997
2 69252  53.1594 192.2424 0001668  82.8823 199.1718 15.49651703  5843
STARLINK-37368          
1 69253U 26117R   26178.50002315 -.01875278  00000+0 -16448-1 0  9995
2 69253  53.1594 191.5548 0001024  79.6743 179.2999 15.71581359  5916
STARLINK-37517          
1 69254U 26117S   26176.55098760 -.00329961  00000+0 -17761-2 0  9990
2 69254  53.1561 201.2378 0001745 205.3788 154.7149 15.80334140  4309
STARLINK-37378          
1 69255U 26117T   26178.50002315 -.02182607  00000+0 -21004-1 0  9999
2 69255  53.1593 191.5470 0000638  80.5915 181.8471 15.69355217  5837
STARLINK-37396          
1 69256U 26117U   26178.50002315 -.02533635  00000+0 -23130-1 0  9993
2 69256  53.1595 191.5024 0000886  77.4977 205.9865 15.70555323  5919
STARLINK-37508          
1 69257U 26117V   26178.50002315 -.02587645  00000+0 -24041-1 0  9996
2 69257  53.1592 191.5863 0001065  92.4438 149.7171 15.70215506  5839
STARLINK-37276          
1 69258U 26117W   26178.50002315  .00074930  00000+0  13442-2 0  9995
2 69258  53.1592 191.9948 0001834  53.4988 344.6877 15.49270507  5836
STARLINK-37518          
1 69259U 26117X   26178.50002315  .00080025  00000+0  14343-2 0  9999
2 69259  53.1593 192.0092 0001930  57.9855 333.2808 15.49265919  5849
STARLINK-37478          
1 69260U 26117Y   26178.50002315  .00079515  00000+0  14253-2 0  9993
2 69260  53.1588 192.5629 0001863  83.2963  34.9428 15.49266330  5844
STARLINK-37506          
1 69261U 26117Z   26178.50002315  .00080175  00000+0  14370-2 0  9998
2 69261  53.1597 192.1491 0001242  75.1699 247.1547 15.49265360  5847
STARLINK-37503          
1 69262U 26117AA  26178.50002315  .00089448  00000+0  16017-2 0  9991
2 69262  53.1583 191.8317 0001170  71.3100  46.8689 15.49241902  5848
STARLINK-37502          
1 69263U 26117AB  26178.50002315  .00081149  00000+0  14533-2 0  9993
2 69263  53.1595 192.0402 0001044  41.6128 333.4712 15.49283965  5847
STARLINK-37486          
1 69264U 26117AC  26178.50002315 -.02464237  00000+0 -39139-1 0  9999
2 69264  53.1590 191.7474 0001295  70.7510  89.2638 15.56559376  5847
STARLINK-37435          
1 69265U 26117AD  26178.50002315 -.01099762  00000+0 -14501-1 0  9992
2 69265  53.1589 191.5293 0001166  83.4232 183.6263 15.60402506  5842
STARLINK-37464          
1 69266U 26117AE  26178.50002315 -.02313805  00000+0 -27846-1 0  9997
2 69266  53.1595 191.3722 0000644  66.8949 276.4571 15.63503732  5844
KUIPER-00282            
1 69267U 26118A   26178.51479723  .00023807  00000+0  72657-3 0  9999
2 69267  51.8598   3.8608 0012006 224.1984 135.8042 15.33734329  5561
