OBJECT_NAME,OBJECT_ID,EPOCH,MEAN_MOTION,ECCENTRICITY,INCLINATION,RA_OF_ASC_NODE,ARG_OF_PERICENTER,MEAN_ANOMALY,EPHEMERIS_TYPE,CLASSIFICATION_TYPE,NORAD_CAT_ID,ELEMENT_SET_NO,REV_AT_EPOCH,BSTAR,MEAN_MOTION_DOT,MEAN_MOTION_DDOT
STARLINK-37665,2026-117A,2026-06-27T12:00:02.000160,15.68035773,.0001173,53.1591,192.0012,55.2269,348.6477,0,U,69238,999,583,-.24824E-1,-.2458378E-1,0
STARLINK-37558,2026-117B,2026-06-27T12:00:02.000160,15.72293229,.000119,53.1587,191.9383,60.5019,13.9176,0,U,69239,999,583,-.20914E-1,-.247588E-1,0
STARLINK-37680,2026-117C,2026-06-27T12:00:02.000160,15.73044281,.0001191,53.1588,191.9095,56.3553,31.8233,0,U,69240,999,583,-.20669E-1,-.2520859E-1,0
STARLINK-37742,2026-117D,2026-06-27T12:00:02.000160,15.71840680,.0001274,53.1588,191.9034,59.2159,32.5189,0,U,69241,999,584,-.21425E-1,-.2486247E-1,0
STARLINK-37718,2026-117E,2026-06-27T12:00:02.000160,15.71431568,.0001088,53.1591,191.8876,68.6324,30.5101,0,U,69242,999,583,-.21441E-1,-.2449881E-1,0
STARLINK-37735,2026-117F,2026-06-27T12:00:02.000160,15.65186347,.0000918,53.1591,191.9950,73.1230,333.2316,0,U,69243,999,584,-.77233E-2,-.714344E-2,0
STARLINK-37757,2026-117G,2026-06-27T12:00:02.000160,15.69116936,.0001239,53.1591,191.9023,63.6166,27.9298,0,U,69244,999,584,-.24756E-1,-.2550382E-1,0
STARLINK-37767,2026-117H,2026-06-27T12:00:02.000160,15.71511414,.0001212,53.1591,191.8324,66.9380,58.6709,0,U,69245,999,584,-.21797E-1,-.2492998E-1,0
STARLINK-35759,2026-117J,2026-06-27T12:00:02.000160,15.69873612,.0001247,53.1586,191.8079,71.4602,65.6503,0,U,69246,999,588,-.24224E-1,-.2572638E-1,0
STARLINK-37238,2026-117K,2026-06-27T12:00:02.000160,15.57362415,.0001039,53.1595,192.0680,76.2806,292.1367,0,U,69247,999,584,-.37952E-1,-.2462985E-1,0
STARLINK-37412,2026-117L,2026-06-27T12:00:02.000160,15.69207897,.000117,53.1588,191.7318,67.1304,106.8148,0,U,69248,999,590,-.23915E-1,-.2483022E-1,0
STARLINK-37398,2026-117M,2026-06-27T12:00:02.000160,15.62394714,.0000774,53.1595,191.9700,77.7492,338.9086,0,U,69249,999,590,-.30852E-1,-.2435731E-1,0
STARLINK-37499,2026-117N,2026-06-27T12:00:02.000160,15.64202439,.0001327,53.1588,191.8499,64.4076,51.1554,0,U,69250,999,590,-.29876E-1,-.2521761E-1,0
STARLINK-37489,2026-117P,2026-06-27T12:00:02.000160,15.61785007,.0001055,53.1592,191.8943,51.8994,42.2783,0,U,69251,999,590,-.31863E-1,-.2453629E-1,0
STARLINK-37434,2026-117Q,2026-06-27T12:00:02.000160,15.49651703,.0001668,53.1594,192.2424,82.8823,199.1718,0,U,69252,999,584,-.10216E-1,-.53772E-2,0
STARLINK-37368,2026-117R,2026-06-27T12:00:02.000160,15.71581359,.0001024,53.1594,191.5548,79.6743,179.2999,0,U,69253,999,591,-.16448E-1,-.1875278E-1,0
STARLINK-37517,2026-117S,2026-06-25T13:13:25.328640,15.80334140,.00017454,53.1561,201.2378,205.3788,154.7149,0,U,69254,999,430,-.17761189E-2,-.329961E-2,0
STARLINK-37378,2026-117T,2026-06-27T12:00:02.000160,15.69355217,.0000638,53.1593,191.5470,80.5915,181.8471,0,U,69255,999,583,-.21004E-1,-.2182607E-1,0
STARLINK-37396,2026-117U,2026-06-27T12:00:02.000160,15.70555323,.0000886,53.1595,191.5024,77.4977,205.9865,0,U,69256,999,591,-.2313E-1,-.2533635E-1,0
STARLINK-37508,2026-117V,2026-06-27T12:00:02.000160,15.70215506,.0001065,53.1592,191.5863,92.4438,149.7171,0,U,69257,999,583,-.24041E-1,-.2587645E-1,0
STARLINK-37276,2026-117W,2026-06-27T12:00:02.000160,15.49270507,.0001834,53.1592,191.9948,53.4988,344.6877,0,U,69258,999,583,.13442E-2,.7493E-3,0
STARLINK-37518,2026-117X,2026-06-27T12:00:02.000160,15.49265919,.000193,53.1593,192.0092,57.9855,333.2808,0,U,69259,999,584,.14343E-2,.80025E-3,0
STARLINK-37478,2026-117Y,2026-06-27T12:00:02.000160,15.49266330,.0001863,53.1588,192.5629,83.2963,34.9428,0,U,69260,999,584,.14253E-2,.79515E-3,0
STARLINK-37506,2026-117Z,2026-06-27T12:00:02.000160,15.49265360,.0001242,53.1597,192.1491,75.1699,247.1547,0,U,69261,999,584,.1437E-2,.80175E-3,0
STARLINK-37503,2026-117AA,2026-06-27T12:00:02.000160,15.49241902,.000117,53.1583,191.8317,71.3100,46.8689,0,U,69262,999,584,.16017E-2,.89448E-3,0
STARLINK-37502,2026-117AB,2026-06-27T12:00:02.000160,15.49283965,.0001044,53.1595,192.0402,41.6128,333.4712,0,U,69263,999,584,.14533E-2,.81149E-3,0
STARLINK-37486,2026-117AC,2026-06-27T12:00:02.000160,15.56559376,.0001295,53.1590,191.7474,70.7510,89.2638,0,U,69264,999,584,-.39139E-1,-.2464237E-1,0
STARLINK-37435,2026-117AD,2026-06-27T12:00:02.000160,15.60402506,.0001166,53.1589,191.5293,83.4232,183.6263,0,U,69265,999,584,-.14501E-1,-.1099762E-1,0
STARLINK-37464,2026-117AE,2026-06-27T12:00:02.000160,15.63503732,.0000644,53.1595,191.3722,66.8949,276.4571,0,U,69266,999,584,-.27846E-1,-.2313805E-1,0
KUIPER-00282,2026-118A,2026-06-27T12:21:18.480672,15.33734329,.0012006,51.8598,3.8608,224.1984,135.8042,0,U,69267,999,556,.72657E-3,.23807E-3,0
